NORAD_CAT_ID,OBJECT_NAME,OBJECT_TYPE,EPOCH,MEAN_MOTION,ECCENTRICITY,INCLINATION,RA_OF_ASC_NODE,ARG_OF_PERICENTER,MEAN_ANOMALY,BSTAR,MEAN_MOTION_DOT,MEAN_MOTION_DDOT,TLE_LINE0,TLE_LINE1,TLE_LINE2,SEMIMAJOR_AXIS,PERIOD,APOGEE,PERIGEE,DECAYED
51461.0,STARLINK-3181,PAYLOAD,2023-03-08 05:42:55,15.08819136,5.92e-05,53.2148,165.7727,62.6282,297.477,0.0031932,0.0005087,0.0,0 STARLINK-3181,1 51461U 22010F   23067.23813962  .00050870  00000-0  31932-2 0  9994,2 51461  53.2148 165.7727 0000592  62.6282 297.4770 15.08819136 61644,6917.944,95.439,540.219,539.4,0.0
51461.0,STARLINK-3181,PAYLOAD,2023-03-08 21:36:47,15.08830034,0.0001463,53.2145,162.7991,41.2309,318.8794,0.0038324,0.00061218,0.0,0 STARLINK-3181,1 51461U 22010F   23067.90054628  .00061218  00000-0  38324-2 0  9994,2 51461  53.2145 162.7991 0001463  41.2309 318.8794 15.08830034 61242,6917.911,95.438,540.788,538.764,0.0
51461.0,STARLINK-3181,PAYLOAD,2023-03-08 23:12:10,15.08834986,5.6e-05,53.2144,162.5016,92.1434,267.9622,0.0042467,0.00067941,0.0,0 STARLINK-3181,1 51461U 22010F   23067.96678350  .00067941  00000-0  42467-2 0  9996,2 51461  53.2144 162.5016 0000560  92.1434 267.9622 15.08834986 61758,6917.896,95.438,540.148,539.373,0.0
51461.0,STARLINK-3181,PAYLOAD,2023-03-09 07:09:05,15.08848139,5.19e-05,53.2142,161.0149,90.3428,269.7623,0.0034583,0.00055194,0.0,0 STARLINK-3181,1 51461U 22010F   23068.29798255  .00055194  00000-0  34583-2 0  9997,2 51461  53.2142 161.0149 0000519  90.3428 269.7623 15.08848139 61806,6917.856,95.437,540.08,539.361,0.0
51461.0,STARLINK-3181,PAYLOAD,2023-03-09 18:16:46,15.08923484,5.8e-05,53.2139,158.9328,94.791,265.3148,0.004545,0.00072962,0.0,0 STARLINK-3181,1 51461U 22010F   23068.76164730  .00072962  00000-0  45450-2 0  9991,2 51461  53.2139 158.9328 0000580  94.7910 265.3148 15.08923484 61876,6917.625,95.432,539.891,539.089,0.0
51461.0,STARLINK-3181,PAYLOAD,2023-03-09 21:27:34,15.08809347,0.0003466,53.2139,158.3389,38.2176,321.9061,0.001314,0.0002067,0.0,0 STARLINK-3181,1 51461U 22010F   23068.89414637  .00020670  00000-0  13140-2 0  9999,2 51461  53.2139 158.3389 0003466  38.2176 321.9061 15.08809347 61391,6917.974,95.439,542.237,537.441,0.0
51461.0,STARLINK-3181,PAYLOAD,2023-03-10 05:24:29,15.08814352,0.0001194,53.2136,156.8519,82.2665,277.8462,0.0041332,0.00066062,0.0,0 STARLINK-3181,1 51461U 22010F   23069.22534455  .00066062  00000-0  41332-2 0  9997,2 51461  53.2136 156.8519 0001194  82.2665 277.8462 15.08814352 61941,6917.959,95.439,540.65,538.998,0.0
51461.0,STARLINK-3181,PAYLOAD,2023-03-10 21:18:21,15.08834108,0.0001967,53.2133,153.8779,70.1333,289.9871,0.0014791,0.00023327,0.0,0 STARLINK-3181,1 51461U 22010F   23069.88774850  .00023327  00000-0  14791-2 0  9990,2 51461  53.2133 153.8779 0001967  70.1333 289.9871 15.08834108 61544,6917.898,95.438,541.124,538.403,0.0
51461.0,STARLINK-3181,PAYLOAD,2023-03-11 05:15:16,15.0885128,0.0001423,53.2132,152.3915,93.4073,266.7081,0.003036,0.00048377,0.0,0 STARLINK-3181,1 51461U 22010F   23070.21894438  .00048377  00000-0  30360-2 0  9996,2 51461  53.2132 152.3915 0001423  93.4073 266.7081 15.08851280 62092,6917.846,95.437,540.695,538.727,0.0
51461.0,STARLINK-3181,PAYLOAD,2023-03-11 13:12:11,15.0888832,0.000136,53.2133,150.9035,99.354,260.7606,0.0032175,0.0005136,0.0,0 STARLINK-3181,1 51461U 22010F   23070.55013664  .00051360  00000-0  32175-2 0  9999,2 51461  53.2133 150.9035 0001360  99.3540 260.7606 15.08888320 61646,6917.733,95.434,540.539,538.657,0.0
51461.0,STARLINK-3181,PAYLOAD,2023-03-11 19:33:44,15.08822374,0.0001467,53.2133,149.7142,71.5917,288.5234,-0.0010882,-0.00017557,0.0,0 STARLINK-3181,1 51461U 22010F   23070.81509865 -.00017557  00000-0 -10882-2 0  9994,2 51461  53.2133 149.7142 0001467  71.5917 288.5234 15.08822374 62181,6917.934,95.439,540.814,538.784,0.0
51461.0,STARLINK-3181,PAYLOAD,2023-03-11 21:09:07,15.08812657,0.0001856,53.2133,149.4172,57.6189,302.4982,3.2666e-05,2.31e-06,0.0,0 STARLINK-3181,1 51461U 22010F   23070.88134089  .00000231  00000-0  32666-4 0  9998,2 51461  53.2133 149.4172 0001856  57.6189 302.4982 15.08812657 61693,6917.964,95.439,541.113,538.545,0.0
51461.0,STARLINK-3181,PAYLOAD,2023-03-12 11:27:36,15.08831419,0.0001504,53.2134,146.7402,67.9586,292.1566,0.0034454,0.00054961,0.0,0 STARLINK-3181,1 51461U 22010F   23071.47751086  .00054961  00000-0  34454-2 0  9990,2 51461  53.2134 146.7402 0001504  67.9586 292.1566 15.08831419 61785,6917.907,95.438,540.812,538.731,0.0
51461.0,STARLINK-3181,PAYLOAD,2023-03-12 14:38:23,15.0884749,0.0001521,53.2134,146.1453,70.3575,289.7581,0.0034307,0.00054747,0.0,0 STARLINK-3181,1 51461U 22010F   23071.60999064  .00054747  00000-0  34307-2 0  9994,2 51461  53.2134 146.1453 0001521  70.3575 289.7581 15.08847490 62304,6917.857,95.437,540.775,538.67,0.0
51461.0,STARLINK-3181,PAYLOAD,2023-03-12 19:24:33,15.08820369,0.0002152,53.2134,145.2534,58.8258,301.2945,0.0011372,0.00017847,0.0,0 STARLINK-3181,1 51461U 22010F   23071.80871568  .00017847  00000-0  11372-2 0  9991,2 51461  53.2134 145.2534 0002152  58.8258 301.2945 15.08820369 62337,6917.94,95.439,541.294,538.317,0.0
51461.0,STARLINK-3181,PAYLOAD,2023-03-13 12:53:47,15.08857032,0.0001423,53.2136,141.982,80.531,279.5843,0.002262,0.00035912,0.0,0 STARLINK-3181,1 51461U 22010F   23072.53735541  .00035912  00000-0  22620-2 0  9993,2 51461  53.2136 141.9820 0001423  80.5310 279.5843 15.08857032 62444,6917.828,95.436,540.678,538.709,0.0
51461.0,STARLINK-3181,PAYLOAD,2023-03-13 14:29:10,15.08861686,0.0001433,53.2137,141.6846,80.9435,279.1719,0.0024594,0.00039094,0.0,0 STARLINK-3181,1 51461U 22010F   23072.60359479  .00039094  00000-0  24594-2 0  9990,2 51461  53.2137 141.6846 0001433  80.9435 279.1719 15.08861686 61956,6917.814,95.436,540.67,538.688,0.0
51461.0,STARLINK-3181,PAYLOAD,2023-03-13 16:04:33,15.08865829,0.0001432,53.2136,141.3872,81.7478,278.3677,0.0025165,0.00040018,0.0,0 STARLINK-3181,1 51461U 22010F   23072.66983395  .00040018  00000-0  25165-2 0  9999,2 51461  53.2136 141.3872 0001432  81.7478 278.3677 15.08865829 61964,6917.801,95.436,540.657,538.676,0.0
51461.0,STARLINK-3181,PAYLOAD,2023-03-14 04:47:38,15.08859373,0.0001317,53.2139,139.0082,80.4503,279.6638,0.0012586,0.0001981,0.0,0 STARLINK-3181,1 51461U 22010F   23073.19975313  .00019810  00000-0  12586-2 0  9998,2 51461  53.2139 139.0082 0001317  80.4503 279.6638 15.08859373 62544,6917.821,95.436,540.597,538.775,0.0
51461.0,STARLINK-3181,PAYLOAD,2023-03-14 11:09:10,15.08872883,0.000139,53.214,137.8188,93.3544,266.7608,0.001947,0.00030863,0.0,0 STARLINK-3181,1 51461U 22010F   23073.46470992  .00030863  00000-0  19470-2 0  9991,2 51461  53.2140 137.8188 0001390  93.3544 266.7608 15.08872883 62082,6917.78,95.435,540.606,538.683,0.0
51461.0,STARLINK-3181,PAYLOAD,2023-03-14 20:41:29,15.08881273,0.0001502,53.214,136.0345,89.7731,270.3433,0.0020425,0.00032405,0.0,0 STARLINK-3181,1 51461U 22010F   23073.86214439  .00032405  00000-0  20425-2 0  9993,2 51461  53.2140 136.0345 0001502  89.7731 270.3433 15.08881273 62147,6917.754,95.435,540.658,538.58,0.0
51461.0,STARLINK-3181,PAYLOAD,2023-03-15 04:38:24,15.08875261,0.0001915,53.2142,134.5473,82.3184,277.8026,0.0016638,0.00026316,0.0,0 STARLINK-3181,1 51461U 22010F   23074.19334203  .00026316  00000-0  16638-2 0  9997,2 51461  53.2142 134.5473 0001915  82.3184 277.8026 15.08875261 62693,6917.773,95.435,540.962,538.313,0.0
51461.0,STARLINK-3181,PAYLOAD,2023-03-15 12:35:19,15.08889826,0.0001449,53.2141,133.0606,77.4861,282.6293,0.0031386,0.00050087,0.0,0 STARLINK-3181,1 51461U 22010F   23074.52453580  .00050087  00000-0  31386-2 0  9993,2 51461  53.2141 133.0606 0001449  77.4861 282.6293 15.08889826 62246,6917.728,95.434,540.595,538.591,0.0
51461.0,STARLINK-3181,PAYLOAD,2023-03-15 20:32:15,15.08857513,0.0001538,53.2141,131.5738,87.8555,272.2613,0.00039596,6.022e-05,0.0,0 STARLINK-3181,1 51461U 22010F   23074.85573645  .00006022  00000-0  39596-3 0  9996,2 51461  53.2141 131.5738 0001538  87.8555 272.2613 15.08857513 62293,6917.827,95.436,540.756,538.628,0.0
51461.0,STARLINK-3181,PAYLOAD,2023-03-16 12:26:07,15.08839342,0.0001101,53.2139,128.6,101.2255,258.8861,0.0020911,0.00033148,0.0,0 STARLINK-3181,1 51461U 22010F   23075.51814354  .00033148  00000-0  20911-2 0  9994,2 51461  53.2139 128.6000 0001101 101.2255 258.8861 15.08839342 62894,6917.882,95.438,540.509,538.986,0.0
51461.0,STARLINK-3181,PAYLOAD,2023-03-16 20:23:03,15.08824895,0.0001106,53.2142,127.1126,115.6511,244.4595,0.000491,7.532e-05,0.0,0 STARLINK-3181,1 51461U 22010F   23075.84934789  .00007532  00000-0  49100-3 0  9995,2 51461  53.2142 127.1126 0001106 115.6511 244.4595 15.08824895 62948,6917.927,95.439,540.557,539.026,0.0
51461.0,STARLINK-3181,PAYLOAD,2023-03-17 12:16:56,15.08814294,0.000118,53.2135,124.1398,116.8704,243.2409,0.0012708,0.0001998,0.0,0 STARLINK-3181,1 51461U 22010F   23076.51176513  .00019980  00000-0  12708-2 0  9996,2 51461  53.2135 124.1398 0001180 116.8704 243.2409 15.08814294 63042,6917.959,95.439,540.64,539.008,0.0
51461.0,STARLINK-3181,PAYLOAD,2023-03-17 20:13:52,15.08822043,0.0001433,53.2144,122.6532,103.4947,256.6204,0.0010644,0.00016684,0.0,0 STARLINK-3181,1 51461U 22010F   23076.84297110  .00016684  00000-0  10644-2 0  9994,2 51461  53.2144 122.6532 0001433 103.4947 256.6204 15.08822043 62598,6917.935,95.439,540.792,538.809,0.0
51461.0,STARLINK-3181,PAYLOAD,2023-03-18 20:04:39,15.0885672,0.0001207,53.2135,118.1902,107.5301,252.5823,0.00083719,0.00013067,0.0,0 STARLINK-3181,1 51461U 22010F   23077.83656528  .00013067  00000-0  83719-3 0  9992,2 51461  53.2135 118.1902 0001207 107.5301 252.5823 15.08856720 63241,6917.829,95.436,540.529,538.859,0.0
51461.0,STARLINK-3181,PAYLOAD,2023-03-19 08:47:43,15.08863959,0.0001275,53.2135,115.8123,101.7585,258.355,0.00063936,9.909e-05,0.0,0 STARLINK-3181,1 51461U 22010F   23078.36647903  .00009909  00000-0  63936-3 0  9997,2 51461  53.2135 115.8123 0001275 101.7585 258.3550 15.08863959 62821,6917.807,95.436,540.554,538.79,0.0
